{
  "type": "FeatureCollection",
  "features": [
    {
      "type": "Feature",
      "properties": {
        "norad_id": 50032,
        "name": "COSMOS 1408 DEB",
        "group": "cosmos-1408-debris",
        "lat": -33.2809854277438,
        "lon": -127.07212181521888,
        "alt_km": 427.19895038859886,
        "timestamp": "2025-12-22T23:36:20.983877+00:00",
        "meta_object_name": "COSMOS 1408 DEB",
        "meta_object_id": "1982-092RU",
        "meta_epoch": "2025-12-22T13:21:50.273568",
        "meta_mean_motion": 15.45786915,
        "meta_eccentricity": 0.00162425,
        "meta_inclination": 82.5631,
        "meta_ra_of_asc_node": 48.4466,
        "meta_arg_of_pericenter": 172.1724,
        "meta_mean_anomaly": 187.9782,
        "meta_ephemeris_type": 0,
        "meta_classification_type": "U",
        "meta_norad_cat_id": 50032,
        "meta_element_set_no": 999,
        "meta_rev_at_epoch": 22755,
        "meta_bstar": 0.00010310912,
        "meta_mean_motion_dot": 5.057e-05,
        "meta_mean_motion_ddot": 0,
        "tle_line1": "1 50032U 82092RU  25356.55683187  .00005057  00000+0  10311-3 0  9990",
        "tle_line2": "2 50032  82.5631  48.4466 0016242 172.1724 187.9782 15.45786915227552"
      },
      "geometry": {
        "type": "Point",
        "coordinates": [
          -127.07212181521888,
          -33.2809854277438
        ]
      }
    },
    {
      "type": "Feature",
      "properties": {
        "norad_id": 50058,
        "name": "COSMOS 1408 DEB",
        "group": "cosmos-1408-debris",
        "lat": 21.793200675855566,
        "lon": 61.590121325154904,
        "alt_km": 365.970352296903,
        "timestamp": "2025-12-22T23:36:20.983901+00:00",
        "meta_object_name": "COSMOS 1408 DEB",
        "meta_object_id": "1982-092SW",
        "meta_epoch": "2025-12-22T05:05:37.437504",
        "meta_mean_motion": 15.64648266,
        "meta_eccentricity": 0.00160261,
        "meta_inclination": 82.6121,
        "meta_ra_of_asc_node": 59.4243,
        "meta_arg_of_pericenter": 66.9716,
        "meta_mean_anomaly": 293.3232,
        "meta_ephemeris_type": 0,
        "meta_classification_type": "U",
        "meta_norad_cat_id": 50058,
        "meta_element_set_no": 999,
        "meta_rev_at_epoch": 22952,
        "meta_bstar": 0.00035457608,
        "meta_mean_motion_dot": 0.00034625,
        "meta_mean_motion_ddot": 0,
        "tle_line1": "1 50058U 82092SW  25356.21223886  .00034625  00000+0  35458-3 0  9999",
        "tle_line2": "2 50058  82.6121  59.4243 0016026  66.9716 293.3232 15.64648266229529"
      },
      "geometry": {
        "type": "Point",
        "coordinates": [
          61.590121325154904,
          21.793200675855566
        ]
      }
    },
    {
      "type": "Feature",
      "properties": {
        "norad_id": 50404,
        "name": "COSMOS 1408 DEB",
        "group": "cosmos-1408-debris",
        "lat": 80.21413661624949,
        "lon": -28.072114813890423,
        "alt_km": 467.21250160667205,
        "timestamp": "2025-12-22T23:36:20.983914+00:00",
        "meta_object_name": "COSMOS 1408 DEB",
        "meta_object_id": "1982-092ADS",
        "meta_epoch": "2025-12-22T13:40:10.224192",
        "meta_mean_motion": 15.1526817,
        "meta_eccentricity": 0.01679183,
        "meta_inclination": 82.2028,
        "meta_ra_of_asc_node": 204.9588,
        "meta_arg_of_pericenter": 165.1635,
        "meta_mean_anomaly": 195.4616,
        "meta_ephemeris_type": 0,
        "meta_classification_type": "U",
        "meta_norad_cat_id": 50404,
        "meta_element_set_no": 999,
        "meta_rev_at_epoch": 21342,
        "meta_bstar": 0.0033048344,
        "meta_mean_motion_dot": 0.0008987,
        "meta_mean_motion_ddot": 0,
        "tle_line1": "1 50404U 82092ADS 25356.56956278  .00089870  00000+0  33048-2 0  9994",
        "tle_line2": "2 50404  82.2028 204.9588 0167918 165.1635 195.4616 15.15268170213422"
      },
      "geometry": {
        "type": "Point",
        "coordinates": [
          -28.072114813890423,
          80.21413661624949
        ]
      }
    },
    {
      "type": "Feature",
      "properties": {
        "norad_id": 50621,
        "name": "COSMOS 1408 DEB",
        "group": "cosmos-1408-debris",
        "lat": 56.19088450510296,
        "lon": -127.72533895787822,
        "alt_km": 371.05737644684905,
        "timestamp": "2025-12-22T23:36:20.983926+00:00",
        "meta_object_name": "COSMOS 1408 DEB",
        "meta_object_id": "1982-092ALR",
        "meta_epoch": "2025-12-22T10:44:32.812800",
        "meta_mean_motion": 15.57134426,
        "meta_eccentricity": 0.00290323,
        "meta_inclination": 82.5695,
        "meta_ra_of_asc_node": 64.0714,
        "meta_arg_of_pericenter": 117.4575,
        "meta_mean_anomaly": 242.9638,
        "meta_ephemeris_type": 0,
        "meta_classification_type": "U",
        "meta_norad_cat_id": 50621,
        "meta_element_set_no": 999,
        "meta_rev_at_epoch": 22401,
        "meta_bstar": 0.00037475493,
        "meta_mean_motion_dot": 0.00027795,
        "meta_mean_motion_ddot": 0,
        "tle_line1": "1 50621U 82092ALR 25356.44760200  .00027795  00000+0  37475-3 0  9997",
        "tle_line2": "2 50621  82.5695  64.0714 0029032 117.4575 242.9638 15.57134426224010"
      },
      "geometry": {
        "type": "Point",
        "coordinates": [
          -127.72533895787822,
          56.19088450510296
        ]
      }
    }
  ]
}